{
  "type": "FeatureCollection",
  "features": [
    {
      "type": "Feature",
      "properties": {
        "norad_id": 66447,
        "name": "STARLINK-34851",
        "group": "last-30-days",
        "lat": -17.910264784977862,
        "lon": -101.07115765009249,
        "alt_km": 416.12403968161107,
        "timestamp": "2025-12-10T18:56:58.831958+00:00",
        "meta_object_name": "STARLINK-34851",
        "meta_object_id": "2025-259AB",
        "meta_epoch": "2025-12-10T05:41:44.121408",
        "meta_mean_motion": 15.50651186,
        "meta_eccentricity": 0.0001321,
        "meta_inclination": 42.9984,
        "meta_ra_of_asc_node": 61.8661,
        "meta_arg_of_pericenter": 284.8329,
        "meta_mean_anomaly": 75.2384,
        "meta_ephemeris_type": 0,
        "meta_classification_type": "U",
        "meta_norad_cat_id": 66447,
        "meta_element_set_no": 999,
        "meta_rev_at_epoch": 567,
        "meta_bstar": 0.0017574,
        "meta_mean_motion_dot": 0.00104412,
        "meta_mean_motion_ddot": 0,
        "tle_line1": "1 66447U 25259AB  25344.23731622  .00104412  00000+0  17574-2 0  9991",
        "tle_line2": "2 66447  42.9984  61.8661 0001321 284.8329  75.2384 15.50651186  5671"
      },
      "geometry": {
        "type": "Point",
        "coordinates": [
          -101.07115765009249,
          -17.910264784977862
        ]
      }
    },
    {
      "type": "Feature",
      "properties": {
        "norad_id": 66448,
        "name": "STARLINK-35355",
        "group": "last-30-days",
        "lat": -19.032604061754583,
        "lon": -99.64405638943155,
        "alt_km": 416.09079722820934,
        "timestamp": "2025-12-10T18:56:58.831968+00:00",
        "meta_object_name": "STARLINK-35355",
        "meta_object_id": "2025-259AC",
        "meta_epoch": "2025-12-10T11:52:16.184928",
        "meta_mean_motion": 15.50615903,
        "meta_eccentricity": 8.47e-05,
        "meta_inclination": 43.0007,
        "meta_ra_of_asc_node": 60.3547,
        "meta_arg_of_pericenter": 245.7434,
        "meta_mean_anomaly": 114.3338,
        "meta_ephemeris_type": 0,
        "meta_classification_type": "U",
        "meta_norad_cat_id": 66448,
        "meta_element_set_no": 999,
        "meta_rev_at_epoch": 582,
        "meta_bstar": 0.0025066,
        "meta_mean_motion_dot": 0.00149752,
        "meta_mean_motion_ddot": 0,
        "tle_line1": "1 66448U 25259AC  25344.49463177  .00149752  00000+0  25066-2 0  9998",
        "tle_line2": "2 66448  43.0007  60.3547 0000847 245.7434 114.3338 15.50615903  5820"
      },
      "geometry": {
        "type": "Point",
        "coordinates": [
          -99.64405638943155,
          -19.032604061754583
        ]
      }
    },
    {
      "type": "Feature",
      "properties": {
        "norad_id": 66449,
        "name": "STARLINK-34720",
        "group": "last-30-days",
        "lat": -20.255479015053243,
        "lon": -98.04788234957053,
        "alt_km": 415.4756848409352,
        "timestamp": "2025-12-10T18:56:58.831978+00:00",
        "meta_object_name": "STARLINK-34720",
        "meta_object_id": "2025-259AD",
        "meta_epoch": "2025-12-10T11:51:46.579104",
        "meta_mean_motion": 15.50681611,
        "meta_eccentricity": 0.0002527,
        "meta_inclination": 43.0013,
        "meta_ra_of_asc_node": 60.3517,
        "meta_arg_of_pericenter": 262.4662,
        "meta_mean_anomaly": 97.5912,
        "meta_ephemeris_type": 0,
        "meta_classification_type": "U",
        "meta_norad_cat_id": 66449,
        "meta_element_set_no": 999,
        "meta_rev_at_epoch": 571,
        "meta_bstar": 0.0022241,
        "meta_mean_motion_dot": 0.00132863,
        "meta_mean_motion_ddot": 0,
        "tle_line1": "1 66449U 25259AD  25344.49428911  .00132863  00000+0  22241-2 0  9993",
        "tle_line2": "2 66449  43.0013  60.3517 0002527 262.4662  97.5912 15.50681611  5718"
      },
      "geometry": {
        "type": "Point",
        "coordinates": [
          -98.04788234957053,
          -20.255479015053243
        ]
      }
    },
    {
      "type": "Feature",
      "properties": {
        "norad_id": 66450,
        "name": "STARLINK-35334",
        "group": "last-30-days",
        "lat": -21.414923568714965,
        "lon": -96.49328652895495,
        "alt_km": 416.2324425015422,
        "timestamp": "2025-12-10T18:56:58.831989+00:00",
        "meta_object_name": "STARLINK-35334",
        "meta_object_id": "2025-259AE",
        "meta_epoch": "2025-12-10T11:51:17.011296",
        "meta_mean_motion": 15.50606593,
        "meta_eccentricity": 0.0001238,
        "meta_inclination": 43.0022,
        "meta_ra_of_asc_node": 60.3483,
        "meta_arg_of_pericenter": 259.7894,
        "meta_mean_anomaly": 100.2826,
        "meta_ephemeris_type": 0,
        "meta_classification_type": "U",
        "meta_norad_cat_id": 66450,
        "meta_element_set_no": 999,
        "meta_rev_at_epoch": 582,
        "meta_bstar": 0.0024522,
        "meta_mean_motion_dot": 0.00146382,
        "meta_mean_motion_ddot": 0,
        "tle_line1": "1 66450U 25259AE  25344.49394689  .00146382  00000+0  24522-2 0  9994",
        "tle_line2": "2 66450  43.0022  60.3483 0001238 259.7894 100.2826 15.50606593  5820"
      },
      "geometry": {
        "type": "Point",
        "coordinates": [
          -96.49328652895495,
          -21.414923568714965
        ]
      }
    },
    {
      "type": "Feature",
      "properties": {
        "norad_id": 66454,
        "name": "VIASAT-3 F2",
        "group": "last-30-days",
        "lat": 2.467725539096832,
        "lon": -40.71896361050227,
        "alt_km": 24012.378768823448,
        "timestamp": "2025-12-10T18:56:58.832002+00:00",
        "meta_object_name": "VIASAT-3 F2",
        "meta_object_id": "2025-261A",
        "meta_epoch": "2025-12-08T12:11:15.383616",
        "meta_mean_motion": 2.19142646,
        "meta_eccentricity": 0.22792154,
        "meta_inclination": 5.457,
        "meta_ra_of_asc_node": 292.6501,
        "meta_arg_of_pericenter": 190.5469,
        "meta_mean_anomaly": 204.5187,
        "meta_ephemeris_type": 0,
        "meta_classification_type": "U",
        "meta_norad_cat_id": 66454,
        "meta_element_set_no": 999,
        "meta_rev_at_epoch": 55,
        "meta_bstar": 0,
        "meta_mean_motion_dot": -8.1e-07,
        "meta_mean_motion_ddot": 0,
        "tle_line1": "1 66454U 25261A   25342.50781694 -.00000081  00000+0  00000+0 0  9995",
        "tle_line2": "2 66454   5.4570 292.6501 2279215 190.5469 204.5187  2.19142646   557"
      },
      "geometry": {
        "type": "Point",
        "coordinates": [
          -40.71896361050227,
          2.467725539096832
        ]
      }
    },
    {
      "type": "Feature",
      "properties": {
        "norad_id": 66455,
        "name": "ATLAS 5 CENTAUR R/B",
        "group": "last-30-days",
        "lat": 2.384627565731394,
        "lon": 89.13688595173727,
        "alt_km": 12755.93498987781,
        "timestamp": "2025-12-10T18:56:58.832014+00:00",
        "meta_object_name": "ATLAS 5 CENTAUR R/B",
        "meta_object_id": "2025-261B",
        "meta_epoch": "2025-12-10T06:41:13.580160",
        "meta_mean_motion": 2.28259697,
        "meta_eccentricity": 0.23295009,
        "meta_inclination": 6.1488,
        "meta_ra_of_asc_node": 291.8627,
        "meta_arg_of_pericenter": 185.9895,
        "meta_mean_anomaly": 282.35,
        "meta_ephemeris_type": 0,
        "meta_classification_type": "U",
        "meta_norad_cat_id": 66455,
        "meta_element_set_no": 999,
        "meta_rev_at_epoch": 59,
        "meta_bstar": 0,
        "meta_mean_motion_dot": -8e-07,
        "meta_mean_motion_ddot": 0,
        "tle_line1": "1 66455U 25261B   25344.27862940 -.00000080  00000+0  00000+0 0  9995",
        "tle_line2": "2 66455   6.1488 291.8627 2329500 185.9895 282.3500  2.28259697   590"
      },
      "geometry": {
        "type": "Point",
        "coordinates": [
          89.13688595173727,
          2.384627565731394
        ]
      }
    },
    {
      "type": "Feature",
      "properties": {
        "norad_id": 66456,
        "name": "STARLINK-35643",
        "group": "last-30-days",
        "lat": 35.45050470695943,
        "lon": -146.97456316983005,
        "alt_km": 439.2167441547681,
        "timestamp": "2025-12-10T18:56:58.832025+00:00",
        "meta_object_name": "STARLINK-35643",
        "meta_object_id": "2025-262A",
        "meta_epoch": "2025-12-10T12:00:02.998944",
        "meta_mean_motion": 15.40650213,
        "meta_eccentricity": 0.0001161,
        "meta_inclination": 42.9997,
        "meta_ra_of_asc_node": 84.5182,
        "meta_arg_of_pericenter": 280.2542,
        "meta_mean_anomaly": 33.6317,
        "meta_ephemeris_type": 0,
        "meta_classification_type": "U",
        "meta_norad_cat_id": 66456,
        "meta_element_set_no": 999,
        "meta_rev_at_epoch": 527,
        "meta_bstar": 0.00098509,
        "meta_mean_motion_dot": 0.00040999,
        "meta_mean_motion_ddot": 0,
        "tle_line1": "1 66456U 25262A   25344.50003471  .00040999  00000+0  98509-3 0  9996",
        "tle_line2": "2 66456  42.9997  84.5182 0001161 280.2542  33.6317 15.40650213  5273"
      },
      "geometry": {
        "type": "Point",
        "coordinates": [
          -146.97456316983005,
          35.45050470695943
        ]
      }
    }
  ]
}